NORAD_CAT_ID,OBJECT_NAME,OBJECT_TYPE,EPOCH,MEAN_MOTION,ECCENTRICITY,INCLINATION,RA_OF_ASC_NODE,ARG_OF_PERICENTER,MEAN_ANOMALY,BSTAR,MEAN_MOTION_DOT,MEAN_MOTION_DDOT,TLE_LINE0,TLE_LINE1,TLE_LINE2,SEMIMAJOR_AXIS,PERIOD,APOGEE,PERIGEE,DECAYED
52543.0,STARLINK-3926,PAYLOAD,2023-07-26 03:00:17,15.08842433,8.76e-05,53.2164,107.7944,95.4916,264.6176,5.1915e-05,5.39e-06,0.0,0 STARLINK-3926,1 52543U 22051L   23207.12520699  .00000539  00000-0  51915-4 0  9999,2 52543  53.2164 107.7944 0000876  95.4916 264.6176 15.08842433 66887,6917.873,95.437,540.344,539.132,0.0
52543.0,STARLINK-3926,PAYLOAD,2023-07-27 02:51:03,15.08856859,0.0001475,53.2136,103.334,89.5515,270.5646,0.00015673,2.208e-05,0.0,0 STARLINK-3926,1 52543U 22051L   23208.11879088  .00002208  00000-0  15673-3 0  9993,2 52543  53.2136 103.3340 0001475  89.5515 270.5646 15.08856859 67104,6917.829,95.436,540.714,538.673,0.0
52543.0,STARLINK-3926,PAYLOAD,2023-07-27 17:09:33,15.08833343,0.0001206,53.2153,100.6574,110.0476,250.0646,-0.00013803,-2.483e-05,0.0,0 STARLINK-3926,1 52543U 22051L   23208.71497502 -.00002483  00000-0 -13803-3 0  9996,2 52543  53.2153 100.6574 0001206 110.0476 250.0646 15.08833343 67195,6917.901,95.438,540.6,538.931,0.0
52543.0,STARLINK-3926,PAYLOAD,2023-07-27 21:55:43,15.08830019,0.000106,53.2171,99.7657,95.9503,264.161,-0.00016814,-2.962e-05,0.0,0 STARLINK-3926,1 52543U 22051L   23208.91369962 -.00002962  00000-0 -16814-3 0  9993,2 52543  53.2171  99.7657 0001060  95.9503 264.1610 15.08830019 67155,6917.911,95.438,540.509,539.043,0.0
52543.0,STARLINK-3926,PAYLOAD,2023-07-28 02:41:53,15.08828532,0.0001152,53.2169,98.8722,111.29,248.8215,-0.00016892,-2.974e-05,0.0,0 STARLINK-3926,1 52543U 22051L   23209.11242084 -.00002974  00000-0 -16892-3 0  9990,2 52543  53.2169  98.8722 0001152 111.2900 248.8215 15.08828532 67180,6917.915,95.438,540.577,538.983,0.0
52543.0,STARLINK-3926,PAYLOAD,2023-07-29 02:32:38,15.08891368,0.0001603,53.2167,94.412,115.0029,245.113,-0.00063799,-0.00010442,0.0,0 STARLINK-3926,1 52543U 22051L   23210.10599822 -.00010442  00000-0 -63799-3 0  9993,2 52543  53.2167  94.4120 0001603 115.0029 245.1130 15.08891368 67405,6917.723,95.434,540.697,538.479,0.0
52543.0,STARLINK-3926,PAYLOAD,2023-07-29 16:51:08,15.08827566,0.0001323,53.2166,91.7357,114.1704,245.9427,0.00020297,2.943e-05,0.0,0 STARLINK-3926,1 52543U 22051L   23210.70217712  .00002943  00000-0  20297-3 0  9995,2 52543  53.2166  91.7357 0001323 114.1704 245.9427 15.08827566 67490,6917.918,95.438,540.699,538.868,0.0
52543.0,STARLINK-3926,PAYLOAD,2023-07-30 00:48:03,15.08837839,0.0001311,53.2165,90.2489,113.8367,246.2762,0.00028679,4.279e-05,0.0,0 STARLINK-3926,1 52543U 22051L   23211.03337257  .00004279  00000-0  28679-3 0  9995,2 52543  53.2165  90.2489 0001311 113.8367 246.2762 15.08837839 67543,6917.887,95.438,540.659,538.845,0.0
52543.0,STARLINK-3926,PAYLOAD,2023-07-31 02:14:13,15.08843388,0.0001218,53.2161,85.4907,109.3552,250.7572,7.1127e-05,8.44e-06,0.0,0 STARLINK-3926,1 52543U 22051L   23212.09321510  .00000844  00000-0  71127-4 0  9998,2 52543  53.2161  85.4907 0001218 109.3552 250.7572 15.08843388 67705,6917.87,95.437,540.578,538.892,0.0
52543.0,STARLINK-3926,PAYLOAD,2023-07-31 22:54:15,15.08839436,0.0001376,53.2181,81.6245,98.1064,262.0084,3.5517e-05,2.77e-06,0.0,0 STARLINK-3926,1 52543U 22051L   23212.95434327  .00000277  00000-0  35517-4 0  9997,2 52543  53.2181  81.6245 0001376  98.1064 262.0084 15.08839436 67835,6917.882,95.438,540.699,538.795,0.0
52543.0,STARLINK-3926,PAYLOAD,2023-08-02 00:20:25,15.08839513,0.0001165,53.2168,76.867,88.0808,272.0318,5.5679e-05,5.98e-06,0.0,0 STARLINK-3926,1 52543U 22051L   23214.01418486  .00000598  00000-0  55679-4 0  9991,2 52543  53.2168  76.8670 0001165  88.0808 272.0318 15.08839513 67992,6917.882,95.438,540.553,538.941,0.0
52543.0,STARLINK-3926,PAYLOAD,2023-08-03 00:11:11,15.08852733,0.0001181,53.2167,72.4061,84.9106,275.2021,0.0001957,2.829e-05,0.0,0 STARLINK-3926,1 52543U 22051L   23215.00777293  .00002829  00000-0  19570-3 0  9993,2 52543  53.2167  72.4061 0001181  84.9106 275.2021 15.08852733 68144,6917.841,95.437,540.523,538.889,0.0
52543.0,STARLINK-3926,PAYLOAD,2023-08-03 17:40:26,15.08843336,0.0001081,53.2159,69.1337,97.7438,262.3677,0.00011798,1.591e-05,0.0,0 STARLINK-3926,1 52543U 22051L   23215.73642160  .00001591  00000-0  11798-3 0  9996,2 52543  53.2159  69.1337 0001081  97.7438 262.3677 15.08843336 68258,6917.87,95.437,540.483,538.987,0.0
52543.0,STARLINK-3926,PAYLOAD,2023-08-04 19:06:36,15.08844766,0.0001213,53.2171,64.3731,109.9035,250.2088,-2.7323e-06,-3.31e-06,0.0,0 STARLINK-3926,1 52543U 22051L   23216.79626033 -.00000331  00000-0 -27323-5 0  9990,2 52543  53.2171  64.3731 0001213 109.9035 250.2088 15.08844766 68411,6917.866,95.437,540.57,538.892,0.0
52543.0,STARLINK-3926,PAYLOAD,2023-08-05 23:43:32,15.08852494,0.000129,53.2176,59.0216,111.5378,248.5752,0.00021426,3.125e-05,0.0,0 STARLINK-3926,1 52543U 22051L   23217.98856843  .00003125  00000-0  21426-3 0  9994,2 52543  53.2176  59.0216 0001290 111.5378 248.5752 15.08852494 68593,6917.842,95.437,540.6,538.815,0.0
52543.0,STARLINK-3926,PAYLOAD,2023-08-06 06:05:06,15.08835408,0.0002454,53.2171,57.8326,79.65,280.4769,-2.2901e-06,-3.25e-06,0.0,0 STARLINK-3926,1 52543U 22051L   23218.25354504 -.00000325  00000-0 -22901-5 0  9994,2 52543  53.2171  57.8326 0002454  79.6500 280.4769 15.08835408 68634,6917.894,95.438,541.457,538.062,0.0
52543.0,STARLINK-3926,PAYLOAD,2023-08-06 20:23:35,15.08816051,0.0001008,53.2168,55.1609,91.7387,268.372,-0.00028638,-4.839e-05,0.0,0 STARLINK-3926,1 52543U 22051L   23218.84971605 -.00004839  00000-0 -28638-3 0  9991,2 52543  53.2168  55.1609 0001008  91.7387 268.3720 15.08816051 68722,6917.954,95.439,540.516,539.121,0.0
52543.0,STARLINK-3926,PAYLOAD,2023-08-07 05:55:54,15.08823435,0.0001134,53.2172,53.3754,76.2748,283.837,-0.0001657,-2.923e-05,0.0,0 STARLINK-3926,1 52543U 22051L   23219.24715718 -.00002923  00000-0 -16570-3 0  9991,2 52543  53.2172  53.3754 0001134  76.2748 283.8370 15.08823435 68780,6917.931,95.439,540.581,539.012,0.0
52543.0,STARLINK-3926,PAYLOAD,2023-08-07 18:38:59,15.08832426,0.0001021,53.2166,50.9961,83.3115,276.7993,0.00013874,1.921e-05,0.0,0 STARLINK-3926,1 52543U 22051L   23219.77707789  .00001921  00000-0  13874-3 0  9997,2 52543  53.2166  50.9961 0001021  83.3115 276.7993 15.08832426 68869,6917.904,95.438,540.475,539.062,0.0
52543.0,STARLINK-3926,PAYLOAD,2023-08-08 05:46:41,15.08853255,9.96e-05,53.2165,48.9144,73.3463,286.7638,0.0011169,0.00017539,0.0,0 STARLINK-3926,1 52543U 22051L   23220.24076026  .00017539  00000-0  11169-2 0  9990,2 52543  53.2165  48.9144 0000996  73.3463 286.7638 15.08853255 68931,6917.84,95.437,540.394,539.016,0.0
52543.0,STARLINK-3926,PAYLOAD,2023-08-09 05:37:27,15.08864887,0.0001034,53.2161,44.4533,76.1918,283.9189,0.00039557,6.017e-05,0.0,0 STARLINK-3926,1 52543U 22051L   23221.23434570  .00006017  00000-0  39557-3 0  9993,2 52543  53.2161  44.4533 0001034  76.1918 283.9189 15.08864887 69080,6917.804,95.436,540.385,538.954,0.0
52543.0,STARLINK-3926,PAYLOAD,2023-08-09 19:55:55,15.08856035,8.79e-05,53.2163,41.7765,83.448,276.6613,0.0004778,7.328e-05,0.0,0 STARLINK-3926,1 52543U 22051L   23221.83050382  .00007328  00000-0  47780-3 0  9997,2 52543  53.2163  41.7765 0000879  83.4480 276.6613 15.08856035 69177,6917.831,95.437,540.304,539.088,0.0
52543.0,STARLINK-3926,PAYLOAD,2023-08-10 18:11:19,15.08849219,0.0001101,53.2151,37.613,91.7231,268.3888,0.0007063,0.00010974,0.0,0 STARLINK-3926,1 52543U 22051L   23222.75786779  .00010974  00000-0  70630-3 0  9996,2 52543  53.2151  37.6130 0001101  91.7231 268.3888 15.08849219 69313,6917.852,95.437,540.479,538.956,0.0
52543.0,STARLINK-3926,PAYLOAD,2023-08-11 05:19:01,15.08842093,0.0001116,53.2144,35.5323,85.1747,274.9372,0.00024555,3.622e-05,0.0,0 STARLINK-3926,1 52543U 22051L   23223.22154855  .00003622  00000-0  24555-3 0  9990,2 52543  53.2144  35.5323 0001116  85.1747 274.9372 15.08842093 69382,6917.874,95.437,540.511,538.967,0.0
52543.0,STARLINK-3926,PAYLOAD,2023-08-12 11:31:21,15.08841257,0.0001033,53.217,29.8821,90.2649,269.8461,6.0723e-05,6.79e-06,0.0,0 STARLINK-3926,1 52543U 22051L   23224.48010965  .00000679  00000-0  60723-4 0  9999,2 52543  53.2170  29.8821 0001033  90.2649 269.8461 15.08841257 69570,6917.877,95.437,540.456,539.027,0.0
52543.0,STARLINK-3926,PAYLOAD,2023-08-13 11:22:08,15.08833353,0.0001089,53.2157,25.4238,95.078,265.0336,3.1695e-05,2.17e-06,0.0,0 STARLINK-3926,1 52543U 22051L   23225.47371386  .00000217  00000-0  31695-4 0  9990,2 52543  53.2157  25.4238 0001089  95.0780 265.0336 15.08833353 69723,6917.901,95.438,540.519,539.012,0.0
52543.0,STARLINK-3926,PAYLOAD,2023-08-13 22:29:50,15.08845287,0.0001036,53.2179,23.3422,93.5664,266.5446,8.7587e-05,1.107e-05,0.0,0 STARLINK-3926,1 52543U 22051L   23225.93738879  .00001107  00000-0  87587-4 0  9995,2 52543  53.2179  23.3422 0001036  93.5664 266.5446 15.08845287 69799,6917.864,95.437,540.446,539.013,0.0
52543.0,STARLINK-3926,PAYLOAD,2023-08-14 11:12:56,15.0883544,8.8e-05,53.2177,20.9599,75.5353,284.5737,2.1799e-05,5.9e-07,0.0,0 STARLINK-3926,1 52543U 22051L   23226.46731818  .00000059  00000-0  21799-4 0  9998,2 52543  53.2177  20.9599 0000880  75.5353 284.5737 15.08835440 69878,6917.894,95.438,540.368,539.151,0.0
52543.0,STARLINK-3926,PAYLOAD,2023-08-14 17:34:28,15.08843496,8.71e-05,53.2172,19.7731,99.6263,260.4827,9.8667e-05,1.283e-05,0.0,0 STARLINK-3926,1 52543U 22051L   23226.73227072  .00001283  00000-0  98667-4 0  9998,2 52543  53.2172  19.7731 0000871  99.6263 260.4827 15.08843496 69912,6917.87,95.437,540.337,539.132,0.0
52543.0,STARLINK-3926,PAYLOAD,2023-08-15 19:00:38,15.08838899,9.73e-05,53.218,15.0147,74.4192,285.6907,0.00013401,1.846e-05,0.0,0 STARLINK-3926,1 52543U 22051L   23227.79211538  .00001846  00000-0  13401-3 0  9992,2 52543  53.2180  15.0147 0000973  74.4192 285.6907 15.08838899 70074,6917.884,95.438,540.422,539.076,0.0
